{"type": "FeatureCollection", "features": [ {"type": "Feature", "properties": {"norad_id": 34327, "name": "COSMOS 2251 DEB", "group": "cosmos-2251-debris", "lat": -17.581139468004725, "lon": -16.19038897890469, "alt_km": 621.1491930826696, "timestamp": "2025-12-19T08:58:49.731103+00:00", "meta": {"OBJECT_NAME": "COSMOS 2251 DEB", "OBJECT_ID": "1993-036NZ", "EPOCH": "2025-12-18T12:59:52.288224", "MEAN_MOTION": 14.89304888, "ECCENTRICITY": 0.00331713, "INCLINATION": 73.9924, "RA_OF_ASC_NODE": 160.2584, "ARG_OF_PERICENTER": 335.4801, "MEAN_ANOMALY": 80.811, "EPHEMERIS_TYPE": 0, "CLASSIFICATION_TYPE": "U", "NORAD_CAT_ID": 34327, "ELEMENT_SET_NO": 999, "REV_AT_EPOCH": 89594, "BSTAR": 0.00094254705, "MEAN_MOTION_DOT": 9.001e-05, "MEAN_MOTION_DDOT": 0}, "tle": {"line1": "1 34327U 93036NZ  25352.54157741  .00009001  00000+0  94255-3 0  9998", "line2": "2 34327  73.9924 160.2584 0033171 335.4801  80.8110 14.89304888895946"}}, "geometry": {"type": "Point", "coordinates": [-16.19038897890469, -17.581139468004725]}}, {"type": "Feature", "properties": {"norad_id": 34340, "name": "COSMOS 2251 DEB", "group": "cosmos-2251-debris", "lat": -67.95274159936429, "lon": 161.7196073285754, "alt_km": 1148.2780897463444, "timestamp": "2025-12-19T08:58:49.731113+00:00", "meta": {"OBJECT_NAME": "COSMOS 2251 DEB", "OBJECT_ID": "1993-036PN", "EPOCH": "2025-12-18T23:22:59.925216", "MEAN_MOTION": 13.79595736, "ECCENTRICITY": 0.02834236, "INCLINATION": 74.0787, "RA_OF_ASC_NODE": 297.5738, "ARG_OF_PERICENTER": 43.8914, "MEAN_ANOMALY": 27.0831, "EPHEMERIS_TYPE": 0, "CLASSIFICATION_TYPE": "U", "NORAD_CAT_ID": 34340, "ELEMENT_SET_NO": 999, "REV_AT_EPOCH": 84354, "BSTAR": 0.0012922339, "MEAN_MOTION_DOT": 1.78e-05, "MEAN_MOTION_DDOT": 0}, "tle": {"line1": "1 34340U 93036PN  25352.97430469  .00001780  00000+0  12922-2 0  9997", "line2": "2 34340  74.0787 297.5738 0283423  43.8914  27.0831 13.79595736843541"}}, "geometry": {"type": "Point", "coordinates": [161.7196073285754, -67.95274159936429]}}, {"type": "Feature", "properties": {"norad_id": 34343, "name": "COSMOS 2251 DEB", "group": "cosmos-2251-debris", "lat": -43.20513548852202, "lon": 61.076628879493235, "alt_km": 654.9858281389297, "timestamp": "2025-12-19T08:58:49.731123+00:00", "meta": {"OBJECT_NAME": "COSMOS 2251 DEB", "OBJECT_ID": "1993-036PR", "EPOCH": "2025-12-18T15:45:35.304768", "MEAN_MOTION": 14.69529316, "ECCENTRICITY": 0.00238905, "INCLINATION": 74.0206, "RA_OF_ASC_NODE": 78.0802, "ARG_OF_PERICENTER": 350.7916, "MEAN_ANOMALY": 129.6595, "EPHEMERIS_TYPE": 0, "CLASSIFICATION_TYPE": "U", "NORAD_CAT_ID": 34343, "ELEMENT_SET_NO": 999, "REV_AT_EPOCH": 88817, "BSTAR": 0.00094976164, "MEAN_MOTION_DOT": 5.632e-05, "MEAN_MOTION_DDOT": 0}, "tle": {"line1": "1 34343U 93036PR  25352.65665862  .00005632  00000+0  94976-3 0  9992", "line2": "2 34343  74.0206  78.0802 0023890 350.7916 129.6595 14.69529316888171"}}, "geometry": {"type": "Point", "coordinates": [61.076628879493235, -43.20513548852202]}}, {"type": "Feature", "properties": {"norad_id": 34344, "name": "COSMOS 2251 DEB", "group": "cosmos-2251-debris", "lat": -46.00792709676008, "lon": -64.18146928552417, "alt_km": 774.6396224545906, "timestamp": "2025-12-19T08:58:49.731133+00:00", "meta": {"OBJECT_NAME": "COSMOS 2251 DEB", "OBJECT_ID": "1993-036PS", "EPOCH": "2025-12-18T17:13:37.907904", "MEAN_MOTION": 14.16454578, "ECCENTRICITY": 0.01562401, "INCLINATION": 73.9796, "RA_OF_ASC_NODE": 99.676, "ARG_OF_PERICENTER": 282.6089, "MEAN_ANOMALY": 201.4311, "EPHEMERIS_TYPE": 0, "CLASSIFICATION_TYPE": "U", "NORAD_CAT_ID": 34344, "ELEMENT_SET_NO": 999, "REV_AT_EPOCH": 86181, "BSTAR": 0.0015826322, "MEAN_MOTION_DOT": 3.521e-05, "MEAN_MOTION_DDOT": 0}, "tle": {"line1": "1 34344U 93036PS  25352.71779986  .00003521  00000+0  15826-2 0  9994", "line2": "2 34344  73.9796  99.6760 0156240 282.6089 201.4311 14.16454578861812"}}, "geometry": {"type": "Point", "coordinates": [-64.18146928552417, -46.00792709676008]}}, {"type": "Feature", "properties": {"norad_id": 34346, "name": "COSMOS 2251 DEB", "group": "cosmos-2251-debris", "lat": -54.08376999443879, "lon": -82.61119580958737, "alt_km": 1050.914144687099, "timestamp": "2025-12-19T08:58:49.731143+00:00", "meta": {"OBJECT_NAME": "COSMOS 2251 DEB", "OBJECT_ID": "1993-036PU", "EPOCH": "2025-12-18T21:33:18.959040", "MEAN_MOTION": 13.99711117, "ECCENTRICITY": 0.02061809, "INCLINATION": 73.9946, "RA_OF_ASC_NODE": 301.5601, "ARG_OF_PERICENTER": 119.0026, "MEAN_ANOMALY": 305.9706, "EPHEMERIS_TYPE": 0, "CLASSIFICATION_TYPE": "U", "NORAD_CAT_ID": 34346, "ELEMENT_SET_NO": 999, "REV_AT_EPOCH": 85496, "BSTAR": 0.00077636968, "MEAN_MOTION_DOT": 1.342e-05, "MEAN_MOTION_DDOT": 0}, "tle": {"line1": "1 34346U 93036PU  25352.89813610  .00001342  00000+0  77637-3 0  9996", "line2": "2 34346  73.9946 301.5601 0206180 119.0026 305.9706 13.99711117854964"}}, "geometry": {"type": "Point", "coordinates": [-82.61119580958737, -54.08376999443879]}}, {"type": "Feature", "properties": {"norad_id": 34383, "name": "COSMOS 2251 DEB", "group": "cosmos-2251-debris", "lat": -52.52594079085204, "lon": 125.95893302012946, "alt_km": 546.1862371462157, "timestamp": "2025-12-19T08:58:49.731153+00:00", "meta": {"OBJECT_NAME": "COSMOS 2251 DEB", "OBJECT_ID": "1993-036PY", "EPOCH": "2025-12-18T21:06:37.624896", "MEAN_MOTION": 15.09517186, "ECCENTRICITY": 0.0002904, "INCLINATION": 74.0217, "RA_OF_ASC_NODE": 285.0313, "ARG_OF_PERICENTER": 47.1884, "MEAN_ANOMALY": 21.8108, "EPHEMERIS_TYPE": 0, "CLASSIFICATION_TYPE": "U", "NORAD_CAT_ID": 34383, "ELEMENT_SET_NO": 999, "REV_AT_EPOCH": 89206, "BSTAR": 0.0022194268, "MEAN_MOTION_DOT": 0.0003574, "MEAN_MOTION_DDOT": 0}, "tle": {"line1": "1 34383U 93036PY  25352.87960214  .00035740  00000+0  22194-2 0  9994", "line2": "2 34383  74.0217 285.0313 0002904  47.1884  21.8108 15.09517186892061"}}, "geometry": {"type": "Point", "coordinates": [125.95893302012946, -52.52594079085204]}}, {"type": "Feature", "properties": {"norad_id": 34387, "name": "COSMOS 2251 DEB", "group": "cosmos-2251-debris", "lat": 47.47806946619049, "lon": -142.25020390323172, "alt_km": 752.8225383268755, "timestamp": "2025-12-19T08:58:49.731228+00:00", "meta": {"OBJECT_NAME": "COSMOS 2251 DEB", "OBJECT_ID": "1993-036QC", "EPOCH": "2025-12-18T14:45:13.749408", "MEAN_MOTION": 14.43832865, "ECCENTRICITY": 0.00388476, "INCLINATION": 74.0389, "RA_OF_ASC_NODE": 200.9758, "ARG_OF_PERICENTER": 296.8914, "MEAN_ANOMALY": 126.9828, "EPHEMERIS_TYPE": 0, "CLASSIFICATION_TYPE": "U", "NORAD_CAT_ID": 34387, "ELEMENT_SET_NO": 999, "REV_AT_EPOCH": 88266, "BSTAR": 0.00022689206, "MEAN_MOTION_DOT": 7.53e-06, "MEAN_MOTION_DDOT": 0}, "tle": {"line1": "1 34387U 93036QC  25352.61474247  .00000753  00000+0  22689-3 0  9992", "line2": "2 34387  74.0389 200.9758 0038847 296.8914 126.9828 14.43832865882668"}}, "geometry": {"type": "Point", "coordinates": [-142.25020390323172, 47.47806946619049]}}, {"type": "Feature", "properties": {"norad_id": 34388, "name": "COSMOS 2251 DEB", "group": "cosmos-2251-debris", "lat": 14.657442232449851, "lon": 26.36901459659075, "alt_km": 728.788306936287, "timestamp": "2025-12-19T08:58:49.731241+00:00", "meta": {"OBJECT_NAME": "COSMOS 2251 DEB", "OBJECT_ID": "1993-036QD", "EPOCH": "2025-12-18T15:55:12.491328", "MEAN_MOTION": 14.49393097, "ECCENTRICITY": 0.00138701, "INCLINATION": 74.0383, "RA_OF_ASC_NODE": 211.9949, "ARG_OF_PERICENTER": 259.8763, "MEAN_ANOMALY": 157.3488, "EPHEMERIS_TYPE": 0, "CLASSIFICATION_TYPE": "U", "NORAD_CAT_ID": 34388, "ELEMENT_SET_NO": 999, "REV_AT_EPOCH": 88241, "BSTAR": 0.00046565528, "MEAN_MOTION_DOT": 1.755e-05, "MEAN_MOTION_DDOT": 0}, "tle": {"line1": "1 34388U 93036QD  25352.66333902  .00001755  00000+0  46566-3 0  9993", "line2": "2 34388  74.0383 211.9949 0013870 259.8763 157.3488 14.49393097882415"}}, "geometry": {"type": "Point", "coordinates": [26.36901459659075, 14.657442232449851]}}, {"type": "Feature", "properties": {"norad_id": 34389, "name": "COSMOS 2251 DEB", "group": "cosmos-2251-debris", "lat": 0.11711417758217048, "lon": -122.45393964839789, "alt_km": 735.6279187619757, "timestamp": "2025-12-19T08:58:49.731253+00:00", "meta": {"OBJECT_NAME": "COSMOS 2251 DEB", "OBJECT_ID": "1993-036QE", "EPOCH": "2025-12-18T19:59:20.781888", "MEAN_MOTION": 14.41547107, "ECCENTRICITY": 0.00291758, "INCLINATION": 74.0181, "RA_OF_ASC_NODE": 238.5159, "ARG_OF_PERICENTER": 349.4297, "MEAN_ANOMALY": 82.7201, "EPHEMERIS_TYPE": 0, "CLASSIFICATION_TYPE": "U", "NORAD_CAT_ID": 34389, "ELEMENT_SET_NO": 999, "REV_AT_EPOCH": 88100, "BSTAR": 0.00026275448, "MEAN_MOTION_DOT": 8.32e-06, "MEAN_MOTION_DDOT": 0}, "tle": {"line1": "1 34389U 93036QE  25352.83287942  .00000832  00000+0  26275-3 0  9995", "line2": "2 34389  74.0181 238.5159 0029175 349.4297  82.7201 14.41547107881006"}}, "geometry": {"type": "Point", "coordinates": [-122.45393964839789, 0.11711417758217048]}}, {"type": "Feature", "properties": {"norad_id": 34396, "name": "COSMOS 2251 DEB", "group": "cosmos-2251-debris", "lat": -8.648556997991935, "lon": 108.57590941073714, "alt_km": 653.6274670816292, "timestamp": "2025-12-19T08:58:49.731263+00:00", "meta": {"OBJECT_NAME": "COSMOS 2251 DEB", "OBJECT_ID": "1993-036QM", "EPOCH": "2025-12-18T19:03:21.663072", "MEAN_MOTION": 14.74574094, "ECCENTRICITY": 0.00052584, "INCLINATION": 74.0289, "RA_OF_ASC_NODE": 112.2056, "ARG_OF_PERICENTER": 151.4488, "MEAN_ANOMALY": 1.0635, "EPHEMERIS_TYPE": 0, "CLASSIFICATION_TYPE": "U", "NORAD_CAT_ID": 34396, "ELEMENT_SET_NO": 999, "REV_AT_EPOCH": 88435, "BSTAR": 0.001542552, "MEAN_MOTION_DOT": 0.00010261, "MEAN_MOTION_DDOT": 0}, "tle": {"line1": "1 34396U 93036QM  25352.79400073  .00010261  00000+0  15426-2 0  9992", "line2": "2 34396  74.0289 112.2056 0005258 151.4488   1.0635 14.74574094884353"}}, "geometry": {"type": "Point", "coordinates": [108.57590941073714, -8.648556997991935]}}]}